H1 CPF  1  SGF 2022  2  4  2  5351 larets    
H2  0304206 5557    27944 2022  2  3  0  0  0 2022  2  8 23 57  0   180 1 1  0 0 0
H9
10 0 59618  28080.00000  0   1018950.904  -4991461.171  -4887423.121
10 0 59618  28260.00000  0    845877.938  -5858093.552  -3846412.083
10 0 59618  28440.00000  0    622124.328  -6506202.923  -2664330.679
10 0 59618  28620.00000  0    361872.606  -6910727.454  -1384403.225
10 0 59618  28800.00000  0     81200.106  -7055919.731    -53585.343
10 0 59618  28980.00000  0   -202767.454  -6936025.555   1279201.118
10 0 59618  29160.00000  0   -472760.154  -6555544.767   2564928.616
10 0 59618  29340.00000  0   -712276.207  -5929053.650   3756338.738
10 0 59618  29520.00000  0   -906450.735  -5080590.795   4809734.285
10 0 59618  29700.00000  0  -1042836.602  -4042657.790   5686601.949
10 0 59618  29880.00000  0  -1112057.420  -2854894.149   6355012.252
10 0 59618  30060.00000  0  -1108302.615  -1562489.896   6790743.738
10 0 59618  30240.00000  0  -1029645.194   -214424.188   6978103.647
10 0 59618  30420.00000  0   -878177.183   1138406.041   6910444.769
10 0 59618  30600.00000  0   -659954.029   2445104.656   6590368.853
10 0 59618  30780.00000  0   -384748.936   3656679.603   6029617.556
10 0 59618  30960.00000  0    -65630.195   4727871.962   5248656.087
10 0 59618  31140.00000  0    281624.336   5618854.518   4275958.230
10 0 59618  31320.00000  0    639255.192   6296740.187   3147003.004
10 0 59618  31500.00000  0    988361.696   6736841.832   1903013.532
10 0 59618  31680.00000  0   1309823.065   6923628.928    589452.606
10 0 59618  31860.00000  0   1585249.772   6851308.015   -745658.787
10 0 59618  32040.00000  0   1797917.510   6524007.862  -2053526.415
10 0 59618  32220.00000  0   1933634.495   5955562.045  -3286395.937
10 0 59618  32400.00000  0   1981499.900   5168900.181  -4399320.417
10 0 59618  32580.00000  0   1934515.260   4195075.646  -5351804.498
10 0 59618  32760.00000  0   1790018.535   3071988.228  -6109254.754
10 0 59618  32940.00000  0   1549924.396   1842871.784  -6644193.563
10 0 59618  33120.00000  0   1220762.559    554614.176  -6937203.808
10 0 59618  33300.00000  0    813516.276   -744022.041  -6977591.149
10 0 59618  33480.00000  0    343262.134  -2004222.631  -6763752.358
10 0 59618  33660.00000  0   -171374.736  -3178926.613  -6303246.001
10 0 59618  33840.00000  0   -708937.730  -4224570.137  -5612570.529
10 0 59618  34020.00000  0  -1246007.807  -5102716.648  -4716634.875
10 0 59618  34200.00000  0  -1758197.050  -5781515.691  -3647928.141
10 0 59618  34380.00000  0  -2221231.908  -6236929.937  -2445393.091
10 0 59618  34560.00000  0  -2612077.149  -6453668.109  -1153030.787
10 0 59618  34740.00000  0  -2910045.890  -6425773.001    181722.801
10 0 59618  34920.00000  0  -3097835.762  -6156818.186   1509787.286
10 0 59618  35100.00000  0  -3162431.353  -5659694.089   2782310.455
10 0 59618  35280.00000  0  -3095822.262  -4955993.515   3952532.553
10 0 59618  35460.00000  0  -2895497.663  -4075034.834   4977551.913
10 0 59618  35640.00000  0  -2564697.208  -3052580.618   5819915.384
10 0 59618  35820.00000  0  -2112407.849  -1929322.814   6448971.221
10 0 59618  36000.00000  0  -1553110.630   -749217.540   6841943.933
10 0 59618  36180.00000  0   -906294.191    442263.112   6984706.387
10 0 59618  36360.00000  0   -195761.501   1599886.474   6872234.350
10 0 59618  36540.00000  0    551250.146   2680366.206   6508755.454
10 0 59618  36720.00000  0   1305110.232   3643969.235   5907584.684
10 0 59618  36900.00000  0   2034959.475   4455972.012   5090655.507
10 0 59618  37080.00000  0   2709961.701   5087924.511   4087753.883
10 0 59618  37260.00000  0   3300598.264   5518671.709   2935467.320
10 0 59618  37440.00000  0   3779952.961   5735097.757   1675877.322
10 0 59618  37620.00000  0   4124927.451   5732549.188    355019.808
10 0 59618  37800.00000  0   4317319.247   5514908.566   -978817.752
10 0 59618  37980.00000  0   4344712.762   5094313.273  -2276893.169
10 0 59618  38160.00000  0   4201135.456   4490537.509  -3491821.311
10 0 59618  38340.00000  0   3887442.917   3730069.032  -4579325.077
10 0 59618  38520.00000  0   3411418.250   2844931.140  -5499846.611
10 0 59618  38700.00000  0   2787587.014   1871314.590  -6219961.197
10 0 59618  38880.00000  0   2036758.433    848084.807  -6713546.548
10 0 59618  39060.00000  0   1185319.102   -184766.910  -6962676.818
10 0 59618  39240.00000  0    264309.070  -1187668.692  -6958234.849
10 0 59618  39420.00000  0   -691696.368  -2122962.620  -6700228.893
10 0 59618  39600.00000  0  -1645860.173  -2956299.136  -6197813.723
10 0 59618  39780.00000  0  -2560481.151  -3657898.089  -5469012.035
10 0 59618  39960.00000  0  -3398472.158  -4203633.787  -4540134.394
10 0 59618  40140.00000  0  -4124875.553  -4575908.478  -3444896.403
10 0 59618  40320.00000  0  -4708349.162  -4764269.189  -2223241.444
10 0 59618  40500.00000  0  -5122554.689  -4765734.987   -919900.065
10 0 59618  40680.00000  0  -5347375.263  -4584810.036    417267.595
10 0 59618  40860.00000  0  -5369892.806  -4233175.715   1739080.748
10 0 59618  41040.00000  0  -5185064.141  -3729068.720   2996918.258
10 0 59618  41220.00000  0  -4796055.806  -3096376.989   4144572.814
10 0 59618  41400.00000  0  -4214224.258  -2363508.809   5139992.621
10 0 59618  41580.00000  0  -3458746.849  -1562097.907   5946831.912
10 0 59618  41760.00000  0  -2555937.048   -725620.012   6535755.556
10 0 59618  41940.00000  0  -1538274.562    112020.146   6885465.599
10 0 59618  42120.00000  0   -443195.293    917865.368   6983413.764
10 0 59618  42300.00000  0    688299.976   1661191.150   6826203.469
10 0 59618  42480.00000  0   1813178.037   2314666.532   6419682.195
10 0 59618  42660.00000  0   2887999.442   2855349.830   5778722.252
10 0 59618  42840.00000  0   3870587.935   3265491.454   4926701.402
10 0 59618  43020.00000  0   4721689.078   3533120.984   3894684.898
10 0 59618  43200.00000  0   5406555.577   3652396.329   2720330.310
10 0 59618  43380.00000  0   5896398.309   3623698.149   1446531.361
10 0 59618  43560.00000  0   6169621.540   3453460.226    119848.444
10 0 59618  43740.00000  0   6212784.378   3153743.322  -1211217.252
10 0 59618  43920.00000  0   6021232.864   2741568.657  -2498030.215
10 0 59618  44100.00000  0   5599371.586   2238051.857  -3693626.618
10 0 59618  44280.00000  0   4960566.150   1667380.343  -4754445.949
10 0 59618  44460.00000  0   4126680.409   1055684.841  -5641914.603
10 0 59618  44640.00000  0   3127280.039    429867.784  -6323815.569
10 0 59618  44820.00000  0   1998548.268   -183555.424  -6775410.783
10 0 59618  45000.00000  0    781961.186   -759555.869  -6980287.900
10 0 59618  45180.00000  0   -477227.752  -1275592.183  -6930922.038
10 0 59618  45360.00000  0  -1731648.043  -1712477.730  -6628940.201
10 0 59618  45540.00000  0  -2933566.654  -2055089.908  -6085089.808
10 0 59618  45720.00000  0  -4036686.009  -2292899.790  -5318904.898
10 0 59618  45900.00000  0  -4997935.547  -2420307.305  -4358074.479
10 0 59618  46080.00000  0  -5779194.883  -2436765.760  -3237505.973
10 0 59618  46260.00000  0  -6348871.166  -2346685.318  -1998099.718
10 0 59618  46440.00000  0  -6683252.914  -2159113.810   -685265.056
10 0 59618  46620.00000  0  -6767564.601  -1887205.657    652770.114
10 0 59618  46800.00000  0  -6596657.750  -1547502.010   1966787.214
10 0 59618  46980.00000  0  -6175291.964  -1159059.059   3208458.141
10 0 59618  47160.00000  0  -5517989.395   -742473.550   4332186.155
10 0 59618  47340.00000  0  -4648472.760   -318857.440   5296821.103
10 0 59618  47520.00000  0  -3598728.435     91179.546   6067167.707
10 0 59618  47700.00000  0  -2407754.729    468490.350   6615243.891
10 0 59618  47880.00000  0  -1120050.636    796247.931   6921250.270
10 0 59618  48060.00000  0    216083.016   1060666.202   6974230.775
10 0 59618  48240.00000  0   1550362.225   1251560.994   6772418.684
10 0 59618  48420.00000  0   2832401.443   1362733.681   6323273.488
10 0 59618  48600.00000  0   4013603.456   1392165.681   5643210.725
10 0 59618  48780.00000  0   5048999.527   1342018.753   4757027.387
10 0 59618  48960.00000  0   5898976.344   1218443.832   3697037.348
10 0 59618  49140.00000  0   6530831.966   1031205.972   2501925.325
10 0 59618  49320.00000  0   6920079.645    793137.684   1215348.836
10 0 59618  49500.00000  0   7051442.791    519447.041   -115661.275
10 0 59618  49680.00000  0   6919485.288    226912.736  -1442445.206
10 0 59618  49860.00000  0   6528838.363    -66993.143  -2716529.064
10 0 59618  50040.00000  0   5894013.403   -345009.674  -3891424.937
10 0 59618  50220.00000  0   5038816.105   -590970.702  -4924340.997
10 0 59618  50400.00000  0   3995394.325   -790620.592  -5777728.688
10 0 59618  50580.00000  0   2802979.378   -932325.544  -6420612.772
10 0 59618  50760.00000  0   1506377.818  -1007651.424  -6829668.195
10 0 59618  50940.00000  0    154280.649  -1011781.916  -6990016.774
10 0 59618  51120.00000  0  -1202549.297   -943765.772  -6895736.403
10 0 59618  51300.00000  0  -2513155.860   -806582.578  -6550075.105
10 0 59618  51480.00000  0  -3728279.092   -607024.420  -5965363.620
10 0 59618  51660.00000  0  -4802197.654   -355396.553  -5162629.725
10 0 59618  51840.00000  0  -5694475.750    -65044.974  -4170911.116
10 0 59618  52020.00000  0  -6371545.077    248273.939  -3026268.410
10 0 59618  52200.00000  0  -6808053.563    567160.209  -1770512.900
10 0 59618  52380.00000  0  -6987906.674    873440.778   -449682.635
10 0 59618  52560.00000  0  -6904936.911   1149098.717    887683.027
10 0 59618  52740.00000  0  -6563150.226   1377212.285   2192387.659
10 0 59618  52920.00000  0  -5976542.545   1542853.253   3416455.337
10 0 59618  53100.00000  0  -5168487.487   1633893.288   4514956.650
10 0 59618  53280.00000  0  -4170733.232   1641674.650   5447689.691
10 0 59618  53460.00000  0  -3022077.511   1561513.956   6180647.584
99
